NORAD_CAT_ID,OBJECT_NAME,OBJECT_TYPE,EPOCH,MEAN_MOTION,ECCENTRICITY,INCLINATION,RA_OF_ASC_NODE,ARG_OF_PERICENTER,MEAN_ANOMALY,BSTAR,MEAN_MOTION_DOT,MEAN_MOTION_DDOT,TLE_LINE0,TLE_LINE1,TLE_LINE2,SEMIMAJOR_AXIS,PERIOD,APOGEE,PERIGEE,DECAYED
51999.0,STARLINK-3667,PAYLOAD,2024-08-09 09:00:35,15.08854289,0.0001321,53.2147,90.7712,99.8345,260.2796,0.00030305,4.54e-05,0.0,0 STARLINK-3667,1 51999U 22025AV  24222.37541394  .00004540  00000-0  30305-3 0  9999,2 51999  53.2147  90.7712 0001321  99.8345 260.2796 15.08854289133760,6917.837,95.437,540.616,538.788,0.0
51999.0,STARLINK-3667,PAYLOAD,2024-08-09 20:08:18,15.08843357,0.0001945,53.2162,88.6904,115.2757,244.8437,0.00010454,1.376e-05,0.0,0 STARLINK-3667,1 51999U 22025AV  24222.83909952  .00001376  00000-0  10454-3 0  9995,2 51999  53.2162  88.6904 0001945 115.2757 244.8437 15.08843357135348,6917.87,95.437,541.081,538.39,0.0
51999.0,STARLINK-3667,PAYLOAD,2024-08-10 00:54:27,15.0884399,0.0001793,53.216,87.799,113.0171,247.101,0.00010336,1.357e-05,0.0,0 STARLINK-3667,1 51999U 22025AV  24223.03781886  .00001357  00000-0  10336-3 0  9990,2 51999  53.2160  87.7990 0001793 113.0171 247.1010 15.08843990133869,6917.868,95.437,540.974,538.493,0.0
51999.0,STARLINK-3667,PAYLOAD,2024-08-10 21:34:28,15.08841676,0.0001691,53.2164,83.9327,114.8332,245.2836,0.00012688,1.732e-05,0.0,0 STARLINK-3667,1 51999U 22025AV  24223.89894079  .00001732  00000-0  12688-3 0  9992,2 51999  53.2164  83.9327 0001691 114.8332 245.2836 15.08841676133998,6917.875,95.437,540.91,538.57,0.0
51999.0,STARLINK-3667,PAYLOAD,2024-08-11 00:45:14,15.08842323,0.0001335,53.2149,83.3386,93.1502,266.9643,0.00017542,2.505e-05,0.0,0 STARLINK-3667,1 51999U 22025AV  24224.03142202  .00002505  00000-0  17542-3 0  9996,2 51999  53.2149  83.3386 0001335  93.1502 266.9643 15.08842323135520,6917.873,95.437,540.662,538.815,0.0
51999.0,STARLINK-3667,PAYLOAD,2024-08-11 21:25:15,15.08850081,0.0002459,53.2157,79.4729,89.9893,270.1381,0.00035466,5.362e-05,0.0,0 STARLINK-3667,1 51999U 22025AV  24224.89254207  .00005362  00000-0  35466-3 0  9998,2 51999  53.2157  79.4729 0002459  89.9893 270.1381 15.08850081134143,6917.85,95.437,541.416,538.013,0.0
51999.0,STARLINK-3667,PAYLOAD,2024-08-12 06:57:33,15.0887467,0.0001028,53.2168,77.6924,65.403,294.707,0.00069482,0.00010798,0.0,0 STARLINK-3667,1 51999U 22025AV  24225.28996926  .00010798  00000-0  69482-3 0  9997,2 51999  53.2168  77.6924 0001028  65.4030 294.7070 15.08874670135716,6917.774,95.435,540.351,538.928,0.0
51999.0,STARLINK-3667,PAYLOAD,2024-08-13 00:26:48,15.08844537,0.0002266,53.2144,74.4219,84.9246,275.2005,0.00012781,1.747e-05,0.0,0 STARLINK-3667,1 51999U 22025AV  24226.01862079  .00001747  00000-0  12781-3 0  9994,2 51999  53.2144  74.4219 0002266  84.9246 275.2005 15.08844537135825,6917.867,95.437,541.299,538.164,0.0
51999.0,STARLINK-3667,PAYLOAD,2024-08-13 06:48:20,15.08858004,6.1e-05,53.2185,73.2326,77.7368,282.3692,0.00034645,5.233e-05,0.0,0 STARLINK-3667,1 51999U 22025AV  24226.28356714  .00005233  00000-0  34645-3 0  9994,2 51999  53.2185  73.2326 0000610  77.7368 282.3692 15.08858004135861,6917.825,95.436,540.112,539.268,0.0
51999.0,STARLINK-3667,PAYLOAD,2024-08-13 22:42:15,15.08788365,0.0002014,53.2143,70.2589,76.6592,283.4625,-0.00088817,-0.00014376,0.0,0 STARLINK-3667,1 51999U 22025AV  24226.94601136 -.00014376  00000-0 -88817-3 0  9998,2 51999  53.2143  70.2589 0002014  76.6592 283.4625 15.08788365134454,6918.038,95.441,541.297,538.51,0.0
51999.0,STARLINK-3667,PAYLOAD,2024-08-14 05:03:47,15.08833754,0.0001842,53.2174,69.0672,81.9573,278.1628,0.00043309,6.61e-05,0.0,0 STARLINK-3667,1 51999U 22025AV  24227.21096449  .00006610  00000-0  43309-3 0  9991,2 51999  53.2174  69.0672 0001842  81.9573 278.1628 15.08833754136003,6917.899,95.438,541.039,538.49,0.0
51999.0,STARLINK-3667,PAYLOAD,2024-08-14 06:39:10,15.08835527,0.0002105,53.2156,68.7705,82.1546,277.9685,0.00051726,7.953e-05,0.0,0 STARLINK-3667,1 51999U 22025AV  24227.27720560  .00007953  00000-0  51726-3 0  9998,2 51999  53.2156  68.7705 0002105  82.1546 277.9685 15.08835527134505,6917.894,95.438,541.215,538.303,0.0
51999.0,STARLINK-3667,PAYLOAD,2024-08-14 19:22:15,15.08849211,0.0001879,53.2156,66.3913,82.8668,277.2538,0.00079663,0.00012416,0.0,0 STARLINK-3667,1 51999U 22025AV  24227.80711996  .00012416  00000-0  79663-3 0  9990,2 51999  53.2156  66.3913 0001879  82.8668 277.2538 15.08849211136090,6917.852,95.437,541.017,538.417,0.0
51999.0,STARLINK-3667,PAYLOAD,2024-08-14 20:57:38,15.08856663,0.000202,53.2158,66.0938,82.9276,277.1946,0.001093,0.00017158,0.0,0 STARLINK-3667,1 51999U 22025AV  24227.87336348  .00017158  00000-0  10930-2 0  9990,2 51999  53.2158  66.0938 0002020  82.9276 277.1946 15.08856663134595,6917.829,95.437,541.092,538.297,0.0
51999.0,STARLINK-3667,PAYLOAD,2024-08-15 06:29:56,15.08870959,0.000218,53.2155,64.3101,81.3875,278.7364,0.00065894,0.00010223,0.0,0 STARLINK-3667,1 51999U 22025AV  24228.27079395  .00010223  00000-0  65894-3 0  9997,2 51999  53.2155  64.3101 0002180  81.3875 278.7364 15.08870959134652,6917.786,95.436,541.159,538.143,0.0
51999.0,STARLINK-3667,PAYLOAD,2024-08-15 19:13:01,15.08845418,0.0002118,53.2156,61.9292,87.8538,272.2697,-0.00026615,-4.522e-05,0.0,0 STARLINK-3667,1 51999U 22025AV  24228.80071339 -.00004522  00000-0 -26615-3 0  9991,2 51999  53.2156  61.9292 0002118  87.8538 272.2697 15.08845418136242,6917.864,95.437,541.194,538.264,0.0
51999.0,STARLINK-3667,PAYLOAD,2024-08-18 12:23:50,15.08837952,0.0001897,53.2159,49.7386,91.9706,268.1503,0.00028572,4.262e-05,0.0,0 STARLINK-3667,1 51999U 22025AV  24231.51655330  .00004262  00000-0  28572-3 0  9995,2 51999  53.2159  49.7386 0001897  91.9706 268.1503 15.08837952136658,6917.887,95.438,541.064,538.439,0.0
51999.0,STARLINK-3667,PAYLOAD,2024-08-18 21:56:08,15.08850749,0.0001801,53.2165,47.9546,88.2198,271.9,0.00058567,9.048e-05,0.0,0 STARLINK-3667,1 51999U 22025AV  24231.91398987  .00009048  00000-0  58567-3 0  9995,2 51999  53.2165  47.9546 0001801  88.2198 271.9000 15.08850749135205,6917.848,95.437,540.958,538.467,0.0
51999.0,STARLINK-3667,PAYLOAD,2024-08-19 04:17:39,15.08894412,0.0001765,53.2164,46.7645,97.5139,262.6053,0.0016261,0.00025725,0.0,0 STARLINK-3667,1 51999U 22025AV  24232.17893409  .00025725  00000-0  16261-2 0  9997,2 51999  53.2164  46.7645 0001765  97.5139 262.6053 15.08894412136759,6917.714,95.434,540.8,538.358,0.0
51999.0,STARLINK-3667,PAYLOAD,2024-08-19 12:14:34,15.08891734,0.0001246,53.2165,45.2774,92.8884,267.225,0.001095,0.00017207,0.0,0 STARLINK-3667,1 51999U 22025AV  24232.51012700  .00017207  00000-0  10950-2 0  9997,2 51999  53.2165  45.2774 0001246  92.8884 267.2250 15.08891734136806,6917.722,95.434,540.449,538.725,0.0
51999.0,STARLINK-3667,PAYLOAD,2024-08-19 13:49:58,15.08843856,0.0001588,53.2165,44.9807,93.6945,266.4229,-0.00084557,-0.00013721,0.0,0 STARLINK-3667,1 51999U 22025AV  24232.57637658 -.00013721  00000-0 -84557-3 0  9992,2 51999  53.2165  44.9807 0001588  93.6945 266.4229 15.08843856135308,6917.869,95.437,540.832,538.635,0.0
51999.0,STARLINK-3667,PAYLOAD,2024-08-19 20:11:31,15.08841624,0.0001374,53.2165,43.7907,87.1217,272.9933,-0.00080561,-0.00013087,0.0,0 STARLINK-3667,1 51999U 22025AV  24232.84133502 -.00013087  00000-0 -80561-3 0  9997,2 51999  53.2165  43.7907 0001374  87.1217 272.9933 15.08841624136855,6917.875,95.437,540.691,538.79,0.0
51999.0,STARLINK-3667,PAYLOAD,2024-08-20 13:40:46,15.08821513,0.0001422,53.2164,40.5201,92.9178,267.1977,-5.7703e-05,-1.206e-05,0.0,0 STARLINK-3667,1 51999U 22025AV  24233.56998505 -.00001206  00000-0 -57703-4 0  9992,2 51999  53.2164  40.5201 0001422  92.9178 267.1977 15.08821513135454,6917.937,95.439,540.786,538.818,0.0
51999.0,STARLINK-3667,PAYLOAD,2024-08-20 23:13:06,15.08826114,0.0001229,53.2164,38.7356,91.7967,268.3166,0.00069893,0.00010849,0.0,0 STARLINK-3667,1 51999U 22025AV  24233.96743099  .00010849  00000-0  69893-3 0  9995,2 51999  53.2164  38.7356 0001229  91.7967 268.3166 15.08826114137022,6917.923,95.438,540.638,538.938,0.0
51999.0,STARLINK-3667,PAYLOAD,2024-08-21 15:06:58,15.08824967,0.0001228,53.2162,35.7622,90.855,269.2583,0.00034736,5.242e-05,0.0,0 STARLINK-3667,1 51999U 22025AV  24234.62983969  .00005242  00000-0  34736-3 0  9990,2 51999  53.2162  35.7622 0001228  90.8550 269.2583 15.08824967135610,6917.926,95.439,540.641,538.942,0.0
51999.0,STARLINK-3667,PAYLOAD,2024-08-21 18:17:44,15.08827425,0.00012,53.2163,35.1674,93.5462,266.5667,0.00038819,5.893e-05,0.0,0 STARLINK-3667,1 51999U 22025AV  24234.76232052  .00005893  00000-0  38819-3 0  9993,2 51999  53.2163  35.1674 0001200  93.5462 266.5667 15.08827425137149,6917.919,95.438,540.614,538.954,0.0
51999.0,STARLINK-3667,PAYLOAD,2024-08-21 19:53:07,15.08829076,0.0001209,53.2163,34.87,93.1326,266.9805,0.00041516,6.324e-05,0.0,0 STARLINK-3667,1 51999U 22025AV  24234.82856078  .00006324  00000-0  41516-3 0  9998,2 51999  53.2163  34.8700 0001209  93.1326 266.9805 15.08829076135644,6917.914,95.438,540.615,538.942,0.0
